ONEWEB-0438             
1 51634U 22012N   26157.18351768  .00000105  00000+0  26323-3 0  9990
2 51634  87.8843  38.4726 0002015  81.6693 278.4663 13.10376168207900
ONEWEB-0439             
1 51635U 22012P   26157.41591110  .00000198  00000+0  53071-3 0  9996
2 51635  87.8844  38.4135 0001828  79.2304 280.9029 13.10375456207913
ONEWEB-0442             
1 51636U 22012Q   26157.57356046  .00000028  00000+0  38840-4 0  9991
2 51636  87.9142   7.9900 0002421  88.1603 271.9806 13.17648465212276
ONEWEB-0443             
1 51637U 22012R   26157.82076927  .00000014  00000+0  30469-5 0  9992
2 51637  87.9142   7.9418 0001925  75.7806 284.3540 13.17648845212350
ONEWEB-0444             
1 51638U 22012S   26157.40594375 -.00000276  00000+0 -82640-3 0  9997
2 51638  87.8841  38.4147 0001910  76.7361 283.3980 13.10376411207929
ONEWEB-0445             
1 51639U 22012T   26157.12210711  .00000711  00000+0  19990-2 0  9995
2 51639  87.8850  38.4581 0001719  87.4315 272.7009 13.10372953207894
ONEWEB-0446             
1 51640U 22012U   26157.40427637 -.00000446  00000+0 -13148-2 0  9991
2 51640  87.8849  38.4309 0001796  87.9437 272.1896 13.10376161207913
ONEWEB-0448             
1 51641U 22012V   26157.40927173  .00000009  00000+0 -10042-4 0  9998
2 51641  87.8845  38.4274 0001780  78.0993 282.0334 13.10375620207884
ONEWEB-0449             
1 51642U 22012W   26157.41425269  .00000266  00000+0  72500-3 0  9999
2 51642  87.8873  38.4101 0002284  78.2499 281.8885 13.10374997207893
ONEWEB-0451             
1 51643U 22012X   26157.57778534 -.00000110  00000+0 -31774-3 0  9991
2 51643  87.9153   7.9527 0002045  84.3165 275.8199 13.17648824212260
ONEWEB-0452             
1 51644U 22012Y   26157.57608524  .00000001  00000+0 -29939-4 0  9992
2 51644  87.9140   7.9912 0001995  76.7388 283.3965 13.17650097212271
ONEWEB-0456             
1 51646U 22012AA  26157.42419632  .00000130  00000+0  33507-3 0  9995
2 51646  87.8847  38.3966 0001702  74.4216 285.7099 13.10375042207932
ONEWEB-0457             
1 51647U 22012AB  26157.62988200 -.00000405  00000+0 -11975-2 0  9991
2 51647  87.8847  38.3740 0002030  91.8794 268.2566 13.10374104207968
ONEWEB-0458             
1 51648U 22012AC  26157.57527700  .00000484  00000+0  13483-2 0  9991
2 51648  87.8846  38.3719 0002072  77.4905 282.6454 13.10394969207916
ONEWEB-0461             
1 51649U 22012AD  26157.67395319  .00000130  00000+0  30274-3 0  9998
2 51649  87.9153   7.9477 0001865  90.6287 269.5058 13.17648146212502
ONEWEB-0463             
1 51650U 22012AE  26157.57946839 -.00000169  00000+0 -46946-3 0  9995
2 51650  87.9141   7.9904 0001892  93.2329 266.9019 13.17648849212274
ONEWEB-0464             
1 51651U 22012AF  26157.41923510  .00000267  00000+0  72931-3 0  9990
2 51651  87.8833  38.4260 0001788  72.1497 287.9825 13.10374917207910
